[{"OBJECT_NAME":"UVSQ-SAT NG","OBJECT_ID":"2025-052AT","EPOCH":"2026-03-09T16:14:06.443808","MEAN_MOTION":14.94868635,"ECCENTRICITY":0.00025988,"INCLINATION":97.6968,"RA_OF_ASC_NODE":322.0499,"ARG_OF_PERICENTER":168.7801,"MEAN_ANOMALY":191.3478,"EPHEMERIS_TYPE":0,"CLASSIFICATION_TYPE":"U","NORAD_CAT_ID":63251,"ELEMENT_SET_NO":999,"REV_AT_EPOCH":5376,"BSTAR":0.00026115974,"MEAN_MOTION_DOT":2.79e-5,"MEAN_MOTION_DDOT":0},{"OBJECT_NAME":"OBJECT H","OBJECT_ID":"2025-313H","EPOCH":"2026-03-09T22:36:06.294528","MEAN_MOTION":15.02722765,"ECCENTRICITY":0.0085698,"INCLINATION":97.296,"RA_OF_ASC_NODE":142.3052,"ARG_OF_PERICENTER":313.0136,"MEAN_ANOMALY":46.393,"EPHEMERIS_TYPE":0,"CLASSIFICATION_TYPE":"U","NORAD_CAT_ID":67255,"ELEMENT_SET_NO":999,"REV_AT_EPOCH":1072,"BSTAR":0.0002424576,"MEAN_MOTION_DOT":3.444e-5,"MEAN_MOTION_DDOT":0}]
